[{"OBJECT_NAME":"STARLINK-5289","OBJECT_ID":"2023-010K","EPOCH":"2026-03-09T22:19:21.404640","MEAN_MOTION":14.98336568,"ECCENTRICITY":0.00029853,"INCLINATION":70.0002,"RA_OF_ASC_NODE":43.7827,"ARG_OF_PERICENTER":267.5214,"MEAN_ANOMALY":92.5603,"EPHEMERIS_TYPE":0,"CLASSIFICATION_TYPE":"U","NORAD_CAT_ID":55278,"ELEMENT_SET_NO":999,"REV_AT_EPOCH":17281,"BSTAR":6.7435226e-5,"MEAN_MOTION_DOT":7.12e-6,"MEAN_MOTION_DDOT":0},{"OBJECT_NAME":"METOP-A","OBJECT_ID":"2006-044A","EPOCH":"2026-03-09T22:42:22.748832","MEAN_MOTION":14.75579804,"ECCENTRICITY":0.01753829,"INCLINATION":98.3242,"RA_OF_ASC_NODE":172.6157,"ARG_OF_PERICENTER":26.1658,"MEAN_ANOMALY":115.682,"EPHEMERIS_TYPE":0,"CLASSIFICATION_TYPE":"U","NORAD_CAT_ID":29499,"ELEMENT_SET_NO":999,"REV_AT_EPOCH":1081,"BSTAR":0.00024290621,"MEAN_MOTION_DOT":2.062e-5,"MEAN_MOTION_DDOT":0}]
